{
  "type": "FeatureCollection",
  "features": [
    {
      "type": "Feature",
      "properties": {
        "norad_id": 35594,
        "name": "COSMOS 2251 DEB",
        "group": "cosmos-2251-debris",
        "lat": 14.46465573828292,
        "lon": -77.68341629711891,
        "alt_km": 592.1553354037142,
        "timestamp": "2025-12-12T16:50:33.542811+00:00",
        "meta_object_name": "COSMOS 2251 DEB",
        "meta_object_id": "1993-036AMM",
        "meta_epoch": "2025-12-11T07:49:43.768128",
        "meta_mean_motion": 14.87869065,
        "meta_eccentricity": 0.00302327,
        "meta_inclination": 73.8067,
        "meta_ra_of_asc_node": 109.3962,
        "meta_arg_of_pericenter": 220.7507,
        "meta_mean_anomaly": 139.1411,
        "meta_ephemeris_type": 0,
        "meta_classification_type": "U",
        "meta_norad_cat_id": 35594,
        "meta_element_set_no": 999,
        "meta_rev_at_epoch": 88164,
        "meta_bstar": 0.003372362,
        "meta_mean_motion_dot": 0.00031222,
        "meta_mean_motion_ddot": 0,
        "tle_line1": "1 35594U 93036AMM 25345.32620102  .00031222  00000+0  33724-2 0  9992",
        "tle_line2": "2 35594  73.8067 109.3962 0030232 220.7507 139.1411 14.87869065881643"
      },
      "geometry": {
        "type": "Point",
        "coordinates": [
          -77.68341629711891,
          14.46465573828292
        ]
      }
    },
    {
      "type": "Feature",
      "properties": {
        "norad_id": 35602,
        "name": "COSMOS 2251 DEB",
        "group": "cosmos-2251-debris",
        "lat": -73.97036651662522,
        "lon": 89.94320129537056,
        "alt_km": 410.300168061618,
        "timestamp": "2025-12-12T16:50:33.542821+00:00",
        "meta_object_name": "COSMOS 2251 DEB",
        "meta_object_id": "1993-036AMV",
        "meta_epoch": "2025-12-12T07:03:29.388096",
        "meta_mean_motion": 15.3505049,
        "meta_eccentricity": 0.00899184,
        "meta_inclination": 73.9939,
        "meta_ra_of_asc_node": 183.1705,
        "meta_arg_of_pericenter": 249.0477,
        "meta_mean_anomaly": 287.9507,
        "meta_ephemeris_type": 0,
        "meta_classification_type": "U",
        "meta_norad_cat_id": 35602,
        "meta_element_set_no": 999,
        "meta_rev_at_epoch": 90084,
        "meta_bstar": 0.00062858431,
        "meta_mean_motion_dot": 0.00024456,
        "meta_mean_motion_ddot": 0,
        "tle_line1": "1 35602U 93036AMV 25346.29409014  .00024456  00000+0  62858-3 0  9998",
        "tle_line2": "2 35602  73.9939 183.1705 0089918 249.0477 287.9507 15.35050490900842"
      },
      "geometry": {
        "type": "Point",
        "coordinates": [
          89.94320129537056,
          -73.97036651662522
        ]
      }
    },
    {
      "type": "Feature",
      "properties": {
        "norad_id": 35605,
        "name": "COSMOS 2251 DEB",
        "group": "cosmos-2251-debris",
        "lat": -43.82330469499135,
        "lon": -39.4140872039595,
        "alt_km": 457.38924640542064,
        "timestamp": "2025-12-12T16:50:33.542831+00:00",
        "meta_object_name": "COSMOS 2251 DEB",
        "meta_object_id": "1993-036AMY",
        "meta_epoch": "2025-12-08T17:29:07.135584",
        "meta_mean_motion": 15.31836492,
        "meta_eccentricity": 0.00282066,
        "meta_inclination": 73.8723,
        "meta_ra_of_asc_node": 345.2823,
        "meta_arg_of_pericenter": 280.9051,
        "meta_mean_anomaly": 78.8978,
        "meta_ephemeris_type": 0,
        "meta_classification_type": "U",
        "meta_norad_cat_id": 35605,
        "meta_element_set_no": 999,
        "meta_rev_at_epoch": 65910,
        "meta_bstar": 0.0070125726,
        "meta_mean_motion_dot": 0.002247,
        "meta_mean_motion_ddot": 0,
        "tle_line1": "1 35605U 93036AMY 25342.72855481  .00224700  00000+0  70126-2 0  9998",
        "tle_line2": "2 35605  73.8723 345.2823 0028206 280.9051  78.8978 15.31836492659101"
      },
      "geometry": {
        "type": "Point",
        "coordinates": [
          -39.4140872039595,
          -43.82330469499135
        ]
      }
    },
    {
      "type": "Feature",
      "properties": {
        "norad_id": 35606,
        "name": "COSMOS 2251 DEB",
        "group": "cosmos-2251-debris",
        "lat": 20.142976362003417,
        "lon": 16.976879856070163,
        "alt_km": 1433.3212268847456,
        "timestamp": "2025-12-12T16:50:33.542841+00:00",
        "meta_object_name": "COSMOS 2251 DEB",
        "meta_object_id": "1993-036AMZ",
        "meta_epoch": "2025-12-09T08:10:26.094720",
        "meta_mean_motion": 13.41205491,
        "meta_eccentricity": 0.04577322,
        "meta_inclination": 73.8107,
        "meta_ra_of_asc_node": 16.2149,
        "meta_arg_of_pericenter": 222.4362,
        "meta_mean_anomaly": 134.0496,
        "meta_ephemeris_type": 0,
        "meta_classification_type": "U",
        "meta_norad_cat_id": 35606,
        "meta_element_set_no": 999,
        "meta_rev_at_epoch": 60994,
        "meta_bstar": 0.0014727579,
        "meta_mean_motion_dot": 1.492e-05,
        "meta_mean_motion_ddot": 0,
        "tle_line1": "1 35606U 93036AMZ 25343.34057980  .00001492  00000+0  14728-2 0  9993",
        "tle_line2": "2 35606  73.8107  16.2149 0457732 222.4362 134.0496 13.41205491609945"
      },
      "geometry": {
        "type": "Point",
        "coordinates": [
          16.976879856070163,
          20.142976362003417
        ]
      }
    },
    {
      "type": "Feature",
      "properties": {
        "norad_id": 35611,
        "name": "COSMOS 2251 DEB",
        "group": "cosmos-2251-debris",
        "lat": 51.1006930778229,
        "lon": -21.427101408711422,
        "alt_km": 655.9595194268168,
        "timestamp": "2025-12-12T16:50:33.542851+00:00",
        "meta_object_name": "COSMOS 2251 DEB",
        "meta_object_id": "1993-036ANE",
        "meta_epoch": "2025-12-12T06:29:24.256896",
        "meta_mean_motion": 14.72829917,
        "meta_eccentricity": 0.00216552,
        "meta_inclination": 74.0198,
        "meta_ra_of_asc_node": 180.2161,
        "meta_arg_of_pericenter": 253.3155,
        "meta_mean_anomaly": 106.564,
        "meta_ephemeris_type": 0,
        "meta_classification_type": "U",
        "meta_norad_cat_id": 35611,
        "meta_element_set_no": 999,
        "meta_rev_at_epoch": 87283,
        "meta_bstar": 0.003406201,
        "meta_mean_motion_dot": 0.00021915,
        "meta_mean_motion_ddot": 0,
        "tle_line1": "1 35611U 93036ANE 25346.27041964  .00021915  00000+0  34062-2 0  9994",
        "tle_line2": "2 35611  74.0198 180.2161 0021655 253.3155 106.5640 14.72829917872839"
      },
      "geometry": {
        "type": "Point",
        "coordinates": [
          -21.427101408711422,
          51.1006930778229
        ]
      }
    },
    {
      "type": "Feature",
      "properties": {
        "norad_id": 35614,
        "name": "COSMOS 2251 DEB",
        "group": "cosmos-2251-debris",
        "lat": -62.56374728391693,
        "lon": -178.80796769465445,
        "alt_km": 654.8146212029988,
        "timestamp": "2025-12-12T16:50:33.542862+00:00",
        "meta_object_name": "COSMOS 2251 DEB",
        "meta_object_id": "1993-036ANH",
        "meta_epoch": "2025-12-11T15:10:18.622272",
        "meta_mean_motion": 14.66997586,
        "meta_eccentricity": 0.00758361,
        "meta_inclination": 73.9591,
        "meta_ra_of_asc_node": 329.6101,
        "meta_arg_of_pericenter": 184.3754,
        "meta_mean_anomaly": 175.6763,
        "meta_ephemeris_type": 0,
        "meta_classification_type": "U",
        "meta_norad_cat_id": 35614,
        "meta_element_set_no": 999,
        "meta_rev_at_epoch": 87713,
        "meta_bstar": 0.001259568,
        "meta_mean_motion_dot": 7.344e-05,
        "meta_mean_motion_ddot": 0,
        "tle_line1": "1 35614U 93036ANH 25345.63215998  .00007344  00000+0  12596-2 0  9994",
        "tle_line2": "2 35614  73.9591 329.6101 0075836 184.3754 175.6763 14.66997586877130"
      },
      "geometry": {
        "type": "Point",
        "coordinates": [
          -178.80796769465445,
          -62.56374728391693
        ]
      }
    },
    {
      "type": "Feature",
      "properties": {
        "norad_id": 35645,
        "name": "COSMOS 2251 DEB",
        "group": "cosmos-2251-debris",
        "lat": -28.839645425335,
        "lon": 78.69151714494856,
        "alt_km": 740.616499116496,
        "timestamp": "2025-12-12T16:50:33.542872+00:00",
        "meta_object_name": "COSMOS 2251 DEB",
        "meta_object_id": "1993-036ANL",
        "meta_epoch": "2025-12-10T23:27:31.601376",
        "meta_mean_motion": 14.45538562,
        "meta_eccentricity": 0.00695586,
        "meta_inclination": 73.9638,
        "meta_ra_of_asc_node": 91.0323,
        "meta_arg_of_pericenter": 249.0012,
        "meta_mean_anomaly": 110.3695,
        "meta_ephemeris_type": 0,
        "meta_classification_type": "U",
        "meta_norad_cat_id": 35645,
        "meta_element_set_no": 999,
        "meta_rev_at_epoch": 86746,
        "meta_bstar": 0.0035659566,
        "meta_mean_motion_dot": 0.00012959,
        "meta_mean_motion_ddot": 0,
        "tle_line1": "1 35645U 93036ANL 25344.97744909  .00012959  00000+0  35660-2 0  9998",
        "tle_line2": "2 35645  73.9638  91.0323 0069558 249.0012 110.3695 14.45538562867469"
      },
      "geometry": {
        "type": "Point",
        "coordinates": [
          78.69151714494856,
          -28.839645425335
        ]
      }
    }
  ]
}